{"type": "Feature", "properties": {}, "geometry": {"type": "Polygon", "coordinates": [[[-120.0, 32.0], [120.0, 32.0], [120.0, 36.0], [-120.0, 36.0], [-120.0, 32.0]], [[-118.746, 33.9756], [-118.8209, 33.9482], [-118.8759, 33.9838], [-118.9517, 33.9929], [-118.941, 34.0747], [-118.7889, 34.1682], [-118.6682, 34.1682], [-118.6682, 34.1841], [-118.6673, 34.207], [-118.6677, 34.2366], [-118.6663, 34.2366], [-118.6677, 34.24], [-118.6325, 34.2404], [-118.6313, 34.2542], [-118.6368, 34.2918], [-118.8946, 34.818], [-118.8605, 34.8032], [-118.8453, 34.8177], [-117.6675, 34.8225], [-117.6671, 34.5579], [-117.6464, 34.2892], [-117.7301, 34.0214], [-117.7358, 34.0186], [-117.768, 34.0235], [-117.7675, 34.0047], [-117.785, 34.0049], [-117.8067, 33.9755], [-117.7831, 33.9463], [-117.9765, 33.946], [-117.9766, 33.9028], [-118.0607, 33.8462], [-118.0632, 33.8197], [-118.0967, 33.7791], [-118.092, 33.7585], [-118.1478, 33.6941], [-118.237, 33.6906], [-118.2742, 33.6634], [-118.3191, 33.6595], [-118.467, 33.7255], [-118.4857, 33.7547], [-118.4845, 33.8032], [-118.4473, 33.8488], [-118.5574, 33.9877], [-118.746, 33.9756]], [[-118.5526, 33.0786], [-118.4489, 32.9618], [-118.2973, 32.8451], [-118.2889, 32.8162], [-118.3028, 32.7888], [-118.4388, 32.7504], [-118.5532, 32.8288], [-118.6447, 33.0], [-118.6702, 33.0], [-118.6782, 33.0397], [-118.6544, 33.075], [-118.6196, 33.0867], [-118.5526, 33.0786]], [[-118.5294, 33.5312], [-118.3594, 33.4649], [-118.3164, 33.4341], [-118.2514, 33.3534], [-118.2411, 33.313], [-118.2509, 33.2805], [-118.328, 33.2481], [-118.5104, 33.2897], [-118.5475, 33.3405], [-118.5479, 33.3768], [-118.6186, 33.4062], [-118.6551, 33.4453], [-118.6682, 33.4859], [-118.6259, 33.529], [-118.5294, 33.5312]]]}}